[{"OBJECT_NAME":"STARLINK-34776","OBJECT_ID":"2025-161Y","EPOCH":"2026-03-09T22:11:36.569184","MEAN_MOTION":15.30176973,"ECCENTRICITY":0.00011932,"INCLINATION":53.1572,"RA_OF_ASC_NODE":293.2663,"ARG_OF_PERICENTER":55.4742,"MEAN_ANOMALY":304.6371,"EPHEMERIS_TYPE":0,"CLASSIFICATION_TYPE":"U","NORAD_CAT_ID":65037,"ELEMENT_SET_NO":999,"REV_AT_EPOCH":3426,"BSTAR":0.00051644763,"MEAN_MOTION_DOT":0.00014957,"MEAN_MOTION_DDOT":0},{"OBJECT_NAME":"ARIANE 5 DEB [SYLDA]","OBJECT_ID":"2014-006D","EPOCH":"2026-03-09T14:06:41.587776","MEAN_MOTION":5.50192195,"ECCENTRICITY":0.51111637,"INCLINATION":5.759,"RA_OF_ASC_NODE":203.8792,"ARG_OF_PERICENTER":276.2372,"MEAN_ANOMALY":30.3308,"EPHEMERIS_TYPE":0,"CLASSIFICATION_TYPE":"U","NORAD_CAT_ID":39511,"ELEMENT_SET_NO":999,"REV_AT_EPOCH":16064,"BSTAR":0.005238019,"MEAN_MOTION_DOT":0.00082249,"MEAN_MOTION_DDOT":0}]
